[{"OBJECT_NAME":"STARLINK-31642","OBJECT_ID":"2024-088U","EPOCH":"2026-03-09T11:06:32.364576","MEAN_MOTION":15.30187317,"ECCENTRICITY":0.0001211,"INCLINATION":53.1608,"RA_OF_ASC_NODE":141.2302,"ARG_OF_PERICENTER":92.3922,"MEAN_ANOMALY":267.7217,"EPHEMERIS_TYPE":0,"CLASSIFICATION_TYPE":"U","NORAD_CAT_ID":59726,"ELEMENT_SET_NO":999,"REV_AT_EPOCH":10364,"BSTAR":2.3217733e-5,"MEAN_MOTION_DOT":3.28e-6,"MEAN_MOTION_DDOT":0},{"OBJECT_NAME":"SIMSAT 2","OBJECT_ID":"2000-026B","EPOCH":"2026-03-09T20:25:01.673184","MEAN_MOTION":15.29036787,"ECCENTRICITY":0.00037035,"INCLINATION":86.3514,"RA_OF_ASC_NODE":176.4271,"ARG_OF_PERICENTER":287.9875,"MEAN_ANOMALY":72.0969,"EPHEMERIS_TYPE":0,"CLASSIFICATION_TYPE":"U","NORAD_CAT_ID":26366,"ELEMENT_SET_NO":999,"REV_AT_EPOCH":42803,"BSTAR":0.00013465771,"MEAN_MOTION_DOT":3.833e-5,"MEAN_MOTION_DDOT":0}]
